[{"OBJECT_NAME":"ONEWEB-0258","OBJECT_ID":"2021-060K","EPOCH":"2026-03-09T22:16:48.513792","MEAN_MOTION":13.16587429,"ECCENTRICITY":0.00015128,"INCLINATION":87.9011,"RA_OF_ASC_NODE":248.5239,"ARG_OF_PERICENTER":93.7316,"MEAN_ANOMALY":266.3988,"EPHEMERIS_TYPE":0,"CLASSIFICATION_TYPE":"U","NORAD_CAT_ID":48976,"ELEMENT_SET_NO":999,"REV_AT_EPOCH":22653,"BSTAR":0.0048981777,"MEAN_MOTION_DOT":1.886e-5,"MEAN_MOTION_DDOT":0},{"OBJECT_NAME":"NOVA 3","OBJECT_ID":"1984-110A","EPOCH":"2026-03-09T22:56:57.313824","MEAN_MOTION":13.23056942,"ECCENTRICITY":0.00334622,"INCLINATION":90.1127,"RA_OF_ASC_NODE":81.5188,"ARG_OF_PERICENTER":89.1357,"MEAN_ANOMALY":332.5718,"EPHEMERIS_TYPE":0,"CLASSIFICATION_TYPE":"U","NORAD_CAT_ID":15362,"ELEMENT_SET_NO":999,"REV_AT_EPOCH":99852,"BSTAR":0.00012783435,"MEAN_MOTION_DOT":6.3e-7,"MEAN_MOTION_DDOT":0}]
